[
    {
        "Altitude(m)": 607897.629076926,
        "Argument of Periapsis(deg)": 0.0,
        "Eccentricity": 0.0,
        "Inclination(deg)": 60.0,
        "Latitude(deg)": -14.293015945895732,
        "Longitude(deg)": -158.3812682496388,
        "Mean Anomaly(deg)": -16.363600000000037,
        "RAAN(deg)": 310.0,
        "Satellite Name": "Test1 1385",
        "Satellite Number": 1385,
        "Semi-Major Axis(m)": 6980739.136638005,
        "Time(s)": 0
    },
    {
        "Altitude(m)": 607750.8299452574,
        "Argument of Periapsis(deg)": 0.00010418945913296404,
        "Eccentricity": 0.0,
        "Inclination(deg)": 60.0,
        "Latitude(deg)": -13.75885781423184,
        "Longitude(deg)": -158.09419831573132,
        "Mean Anomaly(deg)": -15.743493854538185,
        "RAAN(deg)": 309.99957995086027,
        "Satellite Name": "Test1 1385",
        "Satellite Number": 1385,
        "Semi-Major Axis(m)": 6980739.136638005,
        "Time(s)": 10
    }
]